STARLINK-4375           
1 53192U 22084D   22284.17411806 -.00000063  00000+0 -31768-6 0  9993
2 53192  97.6549 343.8033 0001828  96.4074 263.7359 15.01260964 12827
STARLINK-4351           
1 53193U 22084E   22285.17947386 -.00000547  00000+0 -37968-4 0  9995
2 53193  97.6549 344.8004 0002451  95.9623 264.1880 15.01247431 12989
STARLINK-4382           
1 53194U 22084F   22285.17761754 -.00000136  00000+0 -59568-5 0  9994
2 53194  97.6572 344.7932 0002370  80.3464 279.8027 15.01253331 12977
STARLINK-4404           
1 53195U 22084G   22285.18093137  .00000495  00000+0  44014-4 0  9994
2 53195  97.6520 344.9193 0002956 106.7566 253.3983 15.00442009 12988
STARLINK-4407           
1 53196U 22084H   22285.17416481 -.00003100  00000+0 -23686-3 0  9994
2 53196  97.6574 344.7903 0003286 114.6425 245.5142 15.01253768 12976
STARLINK-4403           
1 53197U 22084J   22285.16835717 -.00001419  00000+0 -10588-3 0  9999
2 53197  97.6538 344.7780 0002378 104.0877 256.0612 15.01257459 12975
STARLINK-4385           
1 53198U 22084K   22284.83878996 -.00001571  00000+0 -11777-3 0  9999
2 53198  97.6539 344.4553 0001811  97.2233 262.9198 15.01241903 13201
STARLINK-4395           
1 53199U 22084L   22284.76659607 -.00003439  00000+0 -26342-3 0  9997
2 53199  97.6533 344.3821 0001981 109.4759 250.6679 15.01241937 12912
STARLINK-4417           
1 53200U 22084M   22284.77029482 -.00002778  00000+0 -21187-3 0  9990
2 53200  97.6527 344.3859 0001550 100.1116 260.0283 15.01247555 12914
STARLINK-4405           
1 53201U 22084N   22285.16280342 -.00001491  00000+0 -11149-3 0  9997
2 53201  97.6548 344.7690 0001464 107.8712 252.2672 15.01259444 12976
STARLINK-4411           
1 53202U 22084P   22284.59899685 -.00003278  00000+0 -25627-3 0  9991
2 53202  97.6566 344.6054 0001469  75.0556 285.0831 15.00434921 12534
STARLINK-4409           
1 53203U 22084Q   22284.75919240 -.00003888  00000+0 -29834-3 0  9991
2 53203  97.6540 344.3717 0002070 132.9629 227.1769 15.01252317 12910
STARLINK-4410           
1 53204U 22084R   22284.76473953 -.00000429  00000+0 -28782-4 0  9999
2 53204  97.6537 344.3771 0001745 106.8139 253.3276 15.01256235 13199
STARLINK-4397           
1 53205U 22084S   22285.15540447 -.00001757  00000+0 -13226-3 0  9998
2 53205  97.6544 344.7623 0002237 128.2475 231.8951 15.01246008 12979
STARLINK-4408           
1 53206U 22084T   22285.15934625 -.00001020  00000+0 -74895-4 0  9997
2 53206  97.6549 344.7652 0001933 111.4414 248.7017 15.01241666 12971
STARLINK-4413           
1 53207U 22084U   22285.15355068 -.00001895  00000+0 -14305-3 0  9995
2 53207  97.6547 344.7594 0002371 128.5724 231.5713 15.01249344 12979
STARLINK-4425           
1 53208U 22084V   22285.16095594 -.00000434  00000+0 -29180-4 0  9998
2 53208  97.6553 344.7686 0002172 124.3626 235.7804 15.01252421 12970
STARLINK-4423           
1 53209U 22084W   22285.15196235 -.00000236  00000+0 -13773-4 0  9993
2 53209  97.6549 344.7564 0001781 117.3573 242.7833 15.01246782 12972
STARLINK-4427           
1 53210U 22084X   22284.62402664 -.00001883  00000+0 -14211-3 0  9998
2 53210  97.6541 344.2370 0001392  91.9804 268.1580 15.01248543 13056
STARLINK-4419           
1 53211U 22084Y   22284.74807183 -.00002248  00000+0 -17045-3 0  9991
2 53211  97.6530 344.3604 0002329 139.3935 220.7463 15.01259155 12918
STARLINK-4416           
1 53212U 22084Z   22284.61846873 -.00003625  00000+0 -27790-3 0  9995
2 53212  97.6534 344.2328 0001762 124.7437 235.3954 15.01246937 12517
STARLINK-4414           
1 53213U 22084AA  22284.14263931  .00001054  00000+0  86666-4 0  9992
2 53213  97.6524 343.7598 0002071 129.3043 230.8365 15.01261224 12969
STARLINK-4353           
1 53214U 22084AB  22285.14983954  .00004496  00000+0  35446-3 0  9990
2 53214  97.6547 344.7560 0002086 128.9953 231.1457 15.01256819 12977
STARLINK-4335           
1 53215U 22084AC  22284.80732479 -.00001275  00000+0 -94680-4 0  9997
2 53215  97.6549 344.4173 0001996 122.8776 237.2640 15.01255798 13069
STARLINK-4376           
1 53216U 22084AD  22284.67958001 -.00002036  00000+0 -15407-3 0  9999
2 53216  97.6531 344.2880 0001804 128.8155 231.3230 15.01243213 12900
STARLINK-4379           
1 53217U 22084AE  22284.20399676  .00002679  00000+0  21298-3 0  9992
2 53217  97.6539 343.8213 0001837 113.8944 246.2473 15.01272889 12455
STARLINK-4384           
1 53218U 22084AF  22285.14428256  .00001111  00000+0  91033-4 0  9999
2 53218  97.6561 344.7491 0001448 133.0732 227.0614 15.01270181 12600
STARLINK-4373           
1 53219U 22084AG  22284.59996556 -.00001693  00000+0 -12724-3 0  9997
2 53219  97.6536 344.2139 0001769 111.5737 248.5676 15.01252467 12512
STARLINK-4363           
1 53220U 22084AH  22284.60551868 -.00000710  00000+0 -50723-4 0  9995
2 53220  97.6538 344.2188 0001892 132.8032 227.3351 15.01245258 13034
STARLINK-4377           
1 53221U 22084AJ  22285.13132451 -.00001239  00000+0 -91875-4 0  9998
2 53221  97.6525 344.7396 0001963 108.2448 251.8990 15.01259308 12596
STARLINK-4381           
1 53222U 22084AK  22284.60366621 -.00001657  00000+0 -12451-3 0  9994
2 53222  97.6548 344.2179 0001841 124.7884 235.3514 15.01250586 12518
STARLINK-4354           
1 53223U 22084AL  22284.59626627 -.00002016  00000+0 -15250-3 0  9998
2 53223  97.6547 344.2143 0001862  76.3364 283.8068 15.01238094 12519
STARLINK-4356           
1 53224U 22084AM  22285.13504233 -.00003539  00000+0 -27120-3 0  9998
2 53224  97.6553 344.7420 0002047 120.4315 239.7111 15.01245375 12602
STARLINK-4358           
1 53225U 22084AN  22284.79251161 -.00003509  00000+0 -26882-3 0  9990
2 53225  97.6547 344.4097 0001661  85.1400 275.0014 15.01251721 12546
STARLINK-4359           
1 53226U 22084AP  22284.79646310  .00000199  00000+0  20123-4 0  9998
2 53226  97.6530 344.4107 0001559  82.3082 277.8319 15.01251876 12552
STARLINK-4366           
1 53227U 22084AQ  22284.65575002 -.00001910  00000+0 -14420-3 0  9999
2 53227  97.6560 344.2813 0002348  77.4572 282.6915 15.01240707 12528
STARLINK-4365           
1 53228U 22084AR  22284.12783186  .00000302  00000+0  28066-4 0  9990
2 53228  97.6554 343.7547 0001680 104.6829 255.4582 15.01259617 12445
STARLINK-4367           
1 53229U 22084AS  22284.85547163 -.00001975  00000+0 -14928-3 0  9994
2 53229  97.6567 344.4764 0001719  84.2236 275.9184 15.01246168 12551
STARLINK-4364           
1 53230U 22084AT  22284.79066698 -.00002749  00000+0 -20949-3 0  9998
2 53230  97.6568 344.4103 0002396  63.1641 296.9828 15.01260360 12928
STARLINK-4370           
1 53231U 22084AU  22284.78511226 -.00000471  00000+0 -32075-4 0  9994
2 53231  97.6570 344.4063 0002000  81.6383 278.5067 15.01246067 12544
STARLINK-4371           
1 53232U 22084AV  22284.18707506  .00000865  00000+0  71932-4 0  9997
2 53232  97.6567 343.8214 0001644  78.6370 281.5039 15.01262167 12459
STARLINK-4372           
1 53233U 22084AW  22284.18337909 -.00002044  00000+0 -15458-3 0  9997
2 53233  97.6535 343.8134 0002058  76.4241 283.7212 15.01259306 12457
STARLINK-4368           
1 53234U 22084AX  22284.64834048 -.00002159  00000+0 -16352-3 0  9996
2 53234  97.6586 344.2792 0002008  79.1731 280.9719 15.01259155 13531
CSS (WENTIAN)           
1 53239U 22085A   22284.35668424  .00036544  00000+0  41458-3 0  9991
2 53239  41.4736 231.0933 0001091  68.3325  70.7595 15.61630499 82937
STARLINK-4056           
1 53242U 22086A   22285.25001157  .00060808  00000+0  38095-2 0  9992
2 53242  53.2187  25.6309 0001463  57.2494 290.0456 15.08806936 12942
STARLINK-4047           
1 53243U 22086B   22284.91667824 -.00004871  00000+0 -28825-3 0  9995
2 53243  53.2159  32.1170 0001975  42.6268 290.7436 15.08828709  1301
STARLINK-4125           
1 53244U 22086C   22284.91667824  .00047797  00000+0  30038-2 0  9996
2 53244  53.2170  32.1185 0001940  46.5845 346.8408 15.08805421  1305
STARLINK-4124           
1 53245U 22086D   22284.91667824 -.00005330  00000+0 -31707-3 0  9991
2 53245  53.2166  32.1200 0001844  39.9764 313.4063 15.08832529  1304
STARLINK-4131           
1 53246U 22086E   22285.25001157  .00063530  00000+0  39774-2 0  9996
2 53246  53.2177  30.6226 0002184  37.3008 347.6293 15.08808975 12875
STARLINK-4061           
1 53247U 22086F   22284.91667824 -.00008425  00000+0 -51196-3 0  9995
2 53247  53.2190  27.1317 0001919  48.4415 307.2411 15.08829791  1302
STARLINK-4135           
1 53248U 22086G   22284.91667824 -.00003521  00000+0 -20322-3 0  9995
2 53248  53.2173  27.1173 0001511  53.6100 322.0994 15.08838152  1303
STARLINK-4128           
1 53249U 22086H   22284.91667824 -.00025718  00000+0 -16030-2 0  9998
2 53249  53.2173  22.1200 0001893  40.0842 268.3159 15.08852596  1309
STARLINK-4059           
1 53250U 22086J   22284.91667824 -.00008738  00000+0 -53184-3 0  9995
2 53250  53.2184  22.1320 0002203  37.5594 250.8185 15.08819731  1306
STARLINK-4129           
1 53251U 22086K   22285.25001157  .00054764  00000+0  34356-2 0  9992
2 53251  53.2177  20.6307 0001913  42.2986 317.6508 15.08806333 13018
STARLINK-4132           
1 53252U 22086L   22285.25001157  .00057479  00000+0  36033-2 0  9993
2 53252  53.2173  20.6337 0002040  42.1421 272.6077 15.08809646 13014
STARLINK-4133           
1 53253U 22086M   22284.91667824 -.00003661  00000+0 -21202-3 0  9994
2 53253  53.2174  22.1172 0002142  33.9078 334.5016 15.08838189  1303
STARLINK-4134           
1 53254U 22086N   22285.25001157  .00046776  00000+0  29387-2 0  9997
2 53254  53.2175  20.6298 0002012  30.0515 309.9282 15.08827340 13016
STARLINK-4142           
1 53255U 22086P   22284.91667824 -.00007086  00000+0 -42764-3 0  9997
2 53255  53.2179  22.1275 0001789  42.5898   5.7743 15.08829180  1301
STARLINK-4147           
1 53256U 22086Q   22284.91667824 -.00008676  00000+0 -52785-3 0  9998
2 53256  53.2191  22.1286 0001865  39.9024 348.4689 15.08825295  1303
